OBJECT_NAME,OBJECT_ID,EPOCH,MEAN_MOTION,ECCENTRICITY,INCLINATION,RA_OF_ASC_NODE,ARG_OF_PERICENTER,MEAN_ANOMALY,EPHEMERIS_TYPE,CLASSIFICATION_TYPE,NORAD_CAT_ID,ELEMENT_SET_NO,REV_AT_EPOCH,BSTAR,MEAN_MOTION_DOT,MEAN_MOTION_DDOT
STARLINK-3790,2022-041P,2026-07-20T22:00:01.999584,15.31690708,.00013647,53.1610,227.8784,74.4040,139.0233,0,U,52274,999,580,.15237861E-2,.47206E-3,0
STARLINK-3784,2022-041Q,2026-07-20T08:40:20.754912,15.08831097,.00005596,53.1589,233.2371,75.2693,284.8360,0,U,52275,999,23439,.58572275E-4,.644E-5,0
STARLINK-3778,2022-041R,2026-07-20T19:32:09.843648,15.08827842,.00008059,53.1590,231.2045,71.8236,288.2843,0,U,52276,999,23446,.33693724E-4,.248E-5,0
STARLINK-3780,2022-041T,2026-07-20T09:54:33.102432,15.08826017,.00010027,53.1587,233.0086,75.6480,284.4623,0,U,52278,999,23440,.32218206E-4,.225E-5,0
STARLINK-3764,2022-041V,2026-07-20T11:00:17.069760,15.31703187,.00011359,53.1603,229.9013,85.7370,274.3762,0,U,52280,999,23445,-.56303329E-4,-.2112E-4,0
STARLINK-3779,2022-041W,2026-07-20T19:33:31.978944,15.08833170,.00009793,53.1590,231.2007,82.3997,277.7105,0,U,52281,999,23446,.51983581E-4,.539E-5,0
STARLINK-3783,2022-041X,2026-07-20T22:00:01.999584,15.31877973,.00006843,53.1611,219.3250,117.3912,207.5759,0,U,52282,999,579,.41299595E-2,.130785E-2,0
STARLINK-3789,2022-041Y,2026-07-20T11:24:37.715328,15.08839997,.0001223,53.1584,232.7255,77.9091,282.2038,0,U,52283,999,23441,.41550428E-4,.373E-5,0
STARLINK-3561,2022-041Z,2026-07-20T22:00:01.999584,15.25092476,.00017873,53.1598,219.7914,73.8226,51.9862,0,U,52284,999,574,.32087262E-2,.8191E-3,0
STARLINK-3802,2022-041AB,2026-07-20T22:00:01.999584,15.32447354,.00015056,53.1606,219.3011,60.5882,356.2154,0,U,52286,999,565,.34998034E-1,.1210038E-1,0
STARLINK-3822,2022-041AC,2026-07-20T22:00:01.999584,15.31682111,.00013966,53.1597,228.1593,75.0363,112.5608,0,U,52287,999,579,.14145715E-2,.43764E-3,0
STARLINK-3776,2022-041AD,2026-07-20T22:00:01.999584,15.33557412,.0001565,53.1608,219.2730,68.0603,23.1446,0,U,52288,999,580,.3651439E-2,.121713E-2,0
STARLINK-3751,2022-041AE,2026-07-20T22:00:01.999584,15.31671938,.00009899,53.1599,218.5025,84.7892,321.2042,0,U,52289,999,579,.17746983E-2,.55065E-3,0
STARLINK-3772,2022-041AF,2026-07-20T22:00:01.999584,15.30286707,.0000575,53.1608,219.5345,59.0345,311.9458,0,U,52290,999,574,.4193359E-2,.126303E-2,0
STARLINK-3753,2022-041AH,2026-07-20T22:00:01.999584,15.32584875,.0001844,53.1586,219.2806,77.4530,87.6183,0,U,52292,999,579,.38129814E-2,.123302E-2,0
STARLINK-3771,2022-041AJ,2026-07-20T22:00:01.999584,15.33378437,.0001522,53.1604,219.2886,68.1262,34.9570,0,U,52293,999,570,.36916759E-2,.122375E-2,0
STARLINK-3777,2022-041AK,2026-07-20T22:00:01.999584,15.32307101,.00016518,53.1584,219.3495,68.2572,81.9704,0,U,52294,999,579,.28753084E-2,.91691E-3,0
STARLINK-3765,2022-041AL,2026-07-20T22:00:01.999584,15.32831587,.00011111,53.1654,219.2239,94.8192,61.0802,0,U,52295,999,574,.2255825E-1,.782225E-2,0
STARLINK-3766,2022-041AM,2026-07-20T22:00:01.999584,15.34043375,.00008904,53.1597,219.2468,126.4834,137.4125,0,U,52296,999,574,.39115847E-2,.132628E-2,0
STARLINK-3758,2022-041AN,2026-07-20T22:00:01.999584,15.31693631,.00014049,53.1600,219.3952,54.7068,32.4009,0,U,52297,999,564,.37501562E-2,.117836E-2,0
STARLINK-3760,2022-041AP,2026-07-20T22:00:01.999584,15.31364462,.00009483,53.1617,219.2175,135.9192,166.0646,0,U,52298,999,575,.39833426E-2,.124008E-2,0
STARLINK-3769,2022-041AR,2026-07-20T22:00:01.999584,15.32071175,.00006508,53.1604,219.3419,116.3641,159.8053,0,U,52300,999,579,.37762997E-2,.120107E-2,0
STARLINK-3768,2022-041AS,2026-07-20T22:00:01.999584,15.30576025,.00018551,53.1597,219.4897,70.6036,28.2807,0,U,52301,999,579,.41426562E-2,.12589E-2,0
STARLINK-3564,2022-041AT,2026-07-20T09:32:15.614880,15.31699780,.00011966,53.1594,208.9298,82.1239,277.9898,0,U,52302,999,23473,.21509016E-4,.302E-5,0
STARLINK-3742,2022-041AU,2026-07-20T22:00:01.999584,15.31877038,.00011546,53.1596,219.3801,100.0895,137.2493,0,U,52303,999,569,.3961448E-2,.125338E-2,0
STARLINK-3744,2022-041AV,2026-07-20T22:00:01.999584,15.27705310,.00020598,53.1610,209.8054,68.8784,44.3234,0,U,52304,999,574,.43623164E-2,.121302E-2,0
STARLINK-3724,2022-041AW,2026-07-20T22:00:01.999584,15.33095107,.00008114,53.1606,219.3510,135.1138,149.3268,0,U,52305,999,569,.41468049E-2,.136543E-2,0
STARLINK-3747,2022-041AX,2026-07-20T22:00:01.999584,15.31063567,.00008738,53.1597,209.4819,110.1119,187.9545,0,U,52306,999,580,.40911262E-2,.126223E-2,0
STARLINK-3755,2022-041AY,2026-07-20T22:00:01.999584,15.31471297,.00011912,53.1659,219.3611,82.2803,204.0742,0,U,52307,999,579,.24542881E-1,.818697E-2,0
STARLINK-3756,2022-041BA,2026-07-20T07:38:09.273696,15.31704848,.00012071,53.1597,209.2648,63.5166,296.5959,0,U,52309,999,23594,.28097674E-4,.507E-5,0
STARLINK-3688,2022-041BB,2026-07-20T10:32:39.109056,15.31704896,.0001201,53.1588,208.7042,79.1037,281.0099,0,U,52310,999,23596,.29437207E-4,.549E-5,0
STARLINK-3750,2022-041BC,2026-07-20T22:00:01.999584,15.31742232,.00009438,53.1592,209.4618,64.6948,304.1706,0,U,52311,999,570,.36191887E-1,.1225619E-1,0
STARLINK-3752,2022-041BD,2026-07-20T22:00:01.999584,15.33424295,.00006629,53.1590,209.2463,130.1828,182.8488,0,U,52312,999,579,.31468237E-2,.104155E-2,0
STARLINK-3749,2022-041BE,2026-07-20T22:00:01.999584,15.33144939,.00009691,53.1600,209.3565,116.1374,145.8524,0,U,52313,999,564,.39649884E-2,.130642E-2,0
STARLINK-3889,2022-045A,2026-07-20T15:46:55.731072,15.08830913,.00010814,53.1608,331.9130,88.2634,271.8482,0,U,52331,999,23571,.19961083E-4,.3E-6,0
STARLINK-3831,2022-045B,2026-07-20T17:39:37.143648,15.08822463,.00013,53.1598,331.5690,99.4036,260.7103,0,U,52332,999,23572,-.67274389E-4,-.1358E-4,0
STARLINK-3847,2022-045C,2026-07-20T08:27:24.169248,15.31702424,.00009912,53.1615,329.2788,80.7106,279.4007,0,U,52333,999,23571,.7988266E-5,-.117E-5,0
STARLINK-3880,2022-045D,2026-07-20T09:20:05.018208,15.08835170,.00013048,53.1613,333.1208,89.3609,270.7532,0,U,52334,999,23566,.200825E-6,-.285E-5,0
STARLINK-3814,2022-045E,2026-07-20T09:14:47.132736,15.08833405,.00013149,53.1609,333.1373,89.9910,270.1232,0,U,52335,999,23567,.32467753E-4,.229E-5,0
STARLINK-3823,2022-045F,2026-07-20T08:39:37.906560,15.33548353,.00008393,53.1634,328.1517,71.5391,288.5703,0,U,52336,999,23574,.14756634E-4,.113E-5,0
STARLINK-3797,2022-045G,2026-07-20T15:52:13.842912,15.08831014,.00010325,53.1608,331.8958,85.3008,274.8102,0,U,52337,999,23571,-.6135701E-5,-.385E-5,0
STARLINK-3792,2022-045J,2026-07-20T08:05:50.461440,15.08832078,.00013313,53.1605,332.9947,82.0667,278.0476,0,U,52339,999,23567,.3712025E-4,.303E-5,0
STARLINK-3818,2022-045K,2026-07-19T15:21:49.270176,15.35400596,.0000884,53.1608,323.3418,75.8163,284.2938,0,U,52340,999,23573,.44049E-4,.1157E-4,0
STARLINK-3843,2022-045L,2026-07-20T16:50:30.722208,15.08834313,.0001295,53.1604,331.6661,90.2545,269.8595,0,U,52341,999,23572,-.24289165E-4,-.674E-5,0
STARLINK-3850,2022-045M,2026-07-20T14:28:47.612640,15.08847864,.0001234,53.1612,322.2743,86.3107,273.8026,0,U,52342,999,23584,.84214E-4,.1053E-4,0
STARLINK-3849,2022-045N,2026-07-19T17:52:41.862144,15.08854845,.00011075,53.1609,336.0155,83.0365,277.0752,0,U,52343,999,23558,.23695029E-3,.3487E-4,0
STARLINK-3851,2022-045P,2026-07-20T07:51:20.315808,15.08833181,.00012625,53.1616,323.4644,86.2922,273.8214,0,U,52344,999,23580,.18612127E-4,.8E-7,0
STARLINK-3852,2022-045Q,2026-07-20T22:00:01.999584,15.25155215,.00021504,53.1595,320.3318,71.3768,47.0879,0,U,52345,999,579,.23755923E-2,.60492E-3,0
STARLINK-3812,2022-045R,2026-07-20T22:00:01.999584,15.23429275,.00015492,53.1608,320.3032,124.8672,108.9036,0,U,52346,999,579,.22934207E-2,.55406E-3,0
STARLINK-3826,2022-045S,2026-07-20T08:35:36.613824,15.33548873,.0001208,53.1618,320.0431,76.9981,283.1156,0,U,52347,999,23585,.15458442E-4,.136E-5,0
STARLINK-3829,2022-045T,2026-07-20T22:00:01.999584,15.26226842,.00015899,53.1588,318.6463,69.3384,338.4171,0,U,52348,999,575,.87097475E-3,.22571E-3,0
STARLINK-3819,2022-045U,2026-07-20T22:00:01.999584,15.34556039,.00010756,53.1596,317.8392,74.1375,326.8765,0,U,52349,999,554,.11280736E-2,.38121E-3,0
STARLINK-3754,2022-045V,2026-07-20T14:09:24.253056,15.35394142,.0000665,53.1612,318.8854,70.9595,289.1480,0,U,52350,999,23589,.37914E-4,.942E-5,0
STARLINK-3838,2022-045X,2026-07-20T08:44:18.954528,15.08831698,.00011888,53.1605,323.2320,88.2856,271.8271,0,U,52352,999,23581,-.7866507E-5,-.413E-5,0
STARLINK-3807,2022-045Y,2026-07-20T14:12:34.848000,15.33547774,.0001262,53.1598,318.9387,88.7125,271.4022,0,U,52353,999,23589,.12088E-4,.25E-6,0
STARLINK-3877,2022-045AA,2026-07-20T08:49:37.138080,15.08828931,.00012857,53.1602,323.2156,90.4109,269.7029,0,U,52355,999,23581,.7659065E-5,-.166E-5,0
STARLINK-3801,2022-045AB,2026-07-19T17:12:10.732032,15.34386236,.00007785,53.1633,322.9073,85.2040,274.9052,0,U,52356,999,23576,.1182687E-4,.24E-6,0
STARLINK-3821,2022-045AC,2026-07-20T07:50:58.691616,15.35403266,.00010774,53.1610,320.2447,75.8865,284.2258,0,U,52357,999,23585,.22691346E-4,.411E-5,0
STARLINK-3837,2022-045AD,2026-07-20T20:55:36.549984,15.08832782,.00009348,53.1615,320.9513,75.1998,284.9097,0,U,52358,999,23589,.27714867E-4,.153E-5,0
STARLINK-3853,2022-045AE,2026-07-20T22:00:01.999584,15.24332158,.00014087,53.1584,320.2542,43.5439,15.6890,0,U,52359,999,569,.23003202E-2,.57107E-3,0
STARLINK-3728,2022-045AG,2026-07-20T22:00:01.999584,15.33535746,.00008919,53.1599,317.7525,36.8762,268.7301,0,U,52361,999,580,.10389022E-2,.33935E-3,0
STARLINK-3848,2022-045AH,2026-07-20T07:19:39.611712,15.31702901,.00010775,53.1609,309.0134,78.5026,281.6097,0,U,52362,999,23600,.16525296E-4,.148E-5,0
STARLINK-3830,2022-045AJ,2026-07-20T13:21:12.662784,15.35395051,.0001094,53.1584,319.6945,86.2543,273.8585,0,U,52363,999,23588,.15981E-3,.5197E-4,0
STARLINK-3820,2022-045AK,2026-07-20T07:36:44.155008,15.08833600,.00011006,53.1601,313.3556,94.9812,265.1305,0,U,52364,999,23594,.10727907E-4,-.117E-5,0
